$$SOE
2460154.500000000, A.D. 2023-Jul-29 00:00:00.0000, 8.794994821862768E+07, 3.150640021754419E+08, 5.385721310263336E+06,
2460161.500000000, A.D. 2023-Aug-05 00:00:00.0000, 7.507823870428482E+07, 3.180803781479256E+08, 5.174426254372090E+06,
2460168.500000000, A.D. 2023-Aug-12 00:00:00.0000, 6.210225360662958E+07, 3.206546581288893E+08, 4.955936418009132E+06,
2460175.500000000, A.D. 2023-Aug-19 00:00:00.0000, 4.903985123165476E+07, 3.227823983123698E+08, 4.730542528632477E+06,
2460182.500000000, A.D. 2023-Aug-26 00:00:00.0000, 3.590913148022824E+07, 3.244600968548167E+08, 4.498550963453338E+06,
2460189.500000000, A.D. 2023-Sep-02 00:00:00.0000, 2.272837086282284E+07, 3.256852103005275E+08, 4.260282698471621E+06,
2460196.500000000, A.D. 2023-Sep-09 00:00:00.0000, 9.515956213150764E+06, 3.264561640995939E+08, 4.016072153040826E+06,
2460203.500000000, A.D. 2023-Sep-16 00:00:00.0000, -3.709682103321288E+06, 3.267723570448963E+08, 3.766265920589522E+06,
2460210.500000000, A.D. 2023-Sep-23 00:00:00.0000, -1.693013643335724E+07, 3.266341598811171E+08, 3.511221382771000E+06,
2460217.500000000, A.D. 2023-Sep-30 00:00:00.0000, -3.012708723799194E+07, 3.260429093277923E+08, 3.251305348215044E+06,
2460224.500000000, A.D. 2023-Oct-07 00:00:00.0000, -4.328236938078330E+07, 3.250008971030864E+08, 2.986892900242791E+06,
2460231.500000000, A.D. 2023-Oct-14 00:00:00.0000, -5.637803766486255E+07, 3.235113508269240E+08, 2.718366101842433E+06,
2460238.500000000, A.D. 2023-Oct-21 00:00:00.0000, -6.939642784011619E+07, 3.215784086812617E+08, 2.446112407887086E+06,
2460245.500000000, A.D. 2023-Oct-28 00:00:00.0000, -8.232021398978747E+07, 3.192070904399191E+08, 2.170523113110140E+06,
2460252.500000000, A.D. 2023-Nov-04 00:00:00.0000, -9.513246307857293E+07, 3.164032644945312E+08, 1.891991900490001E+06,
2460259.500000000, A.D. 2023-Nov-11 00:00:00.0000, -1.078166860775159E+08, 3.131736107165412E+08, 1.610913437585369E+06,
2460266.500000000, A.D. 2023-Nov-18 00:00:00.0000, -1.203568851019601E+08, 3.095255795655747E+08, 1.327682007612720E+06,
2460273.500000000, A.D. 2023-Nov-25 00:00:00.0000, -1.327375962143058E+08, 3.054673479636461E+08, 1.042690182175294E+06,
2460280.500000000, A.D. 2023-Dec-02 00:00:00.0000, -1.449439276632739E+08, 3.010077724371916E+08, 7.563275434021205E+05,
2460287.500000000, A.D. 2023-Dec-09 00:00:00.0000, -1.569615933566068E+08, 2.961563399955052E+08, 4.689794535284638E+05,
2460294.500000000, A.D. 2023-Dec-16 00:00:00.0000, -1.687769412210541E+08, 2.909231172926306E+08, 1.810258544308394E+05,
2460301.500000000, A.D. 2023-Dec-23 00:00:00.0000, -1.803769761012296E+08, 2.853186992870490E+08, -1.071598730262667E+05,
2460308.500000000, A.D. 2023-Dec-30 00:00:00.0000, -1.917493785936443E+08, 2.793541589556085E+08, -3.952117774801850E+05,
2460315.500000000, A.D. 2024-Jan-06 00:00:00.0000, -2.028825216932119E+08, 2.730409961804475E+08, -6.827719616238326E+05,
2460322.500000000, A.D. 2024-Jan-13 00:00:00.0000, -2.137654822252222E+08, 2.663910844364024E+08, -9.694913991844505E+05,
2460329.500000000, A.D. 2024-Jan-20 00:00:00.0000, -2.243880460372828E+08, 2.594166187570037E+08, -1.255030802893028E+06,
2460336.500000000, A.D. 2024-Jan-27 00:00:00.0000, -2.347407092170130E+08, 2.521300659982299E+08, -1.539061305142254E+06,
2460343.500000000, A.D. 2024-Feb-03 00:00:00.0000, -2.448146760204439E+08, 2.445441167743736E+08, -1.821264991331324E+06,
2460350.500000000, A.D. 2024-Feb-10 00:00:00.0000, -2.546018535114516E+08, 2.366716390484533E+08, -2.101335337160930E+06,
2460357.500000000, A.D. 2024-Feb-17 00:00:00.0000, -2.640948430697983E+08, 2.285256336147401E+08, -2.378977564762235E+06,
2460364.500000000, A.D. 2024-Feb-24 00:00:00.0000, -2.732869290403078E+08, 2.201191916770179E+08, -2.653908923318416E+06,
2460371.500000000, A.D. 2024-Mar-02 00:00:00.0000, -2.821720648079004E+08, 2.114654546405123E+08, -2.925858903707772E+06,
2460378.500000000, A.D. 2024-Mar-09 00:00:00.0000, -2.907448564726303E+08, 2.025775761688198E+08, -3.194569409698978E+06,
2460385.500000000, A.D. 2024-Mar-16 00:00:00.0000, -2.990005440352169E+08, 1.934686867822529E+08, -3.459794910808891E+06,
2460392.500000000, A.D. 2024-Mar-23 00:00:00.0000, -3.069349804916850E+08, 1.841518621518450E+08, -3.721302481888570E+06,
2460399.500000000, A.D. 2024-Mar-30 00:00:00.0000, -3.145446113622338E+08, 1.746400950770474E+08, -3.978871531671360E+06,
2460406.500000000, A.D. 2024-Apr-06 00:00:00.0000, -3.218264546669196E+08, 1.649462677699227E+08, -4.232293524802350E+06,
2460413.500000000, A.D. 2024-Apr-13 00:00:00.0000, -3.287780780406566E+08, 1.550831252456091E+08, -4.481371959445141E+06,
2460420.500000000, A.D. 2024-Apr-20 00:00:00.0000, -3.353975741673146E+08, 1.450632524313522E+08, -4.725922298802674E+06,
2460427.500000000, A.D. 2024-Apr-27 00:00:00.0000, -3.416835362676739E+08, 1.348990543552502E+08, -4.965771768706188E+06,
2460434.500000000, A.D. 2024-May-04 00:00:00.0000, -3.476350337499366E+08, 1.246027386240407E+08, -5.200759091942042E+06,
2460441.500000000, A.D. 2024-May-11 00:00:00.0000, -3.532515879585520E+08, 1.141862999880301E+08, -5.430734193845943E+06,
2460448.500000000, A.D. 2024-May-18 00:00:00.0000, -3.585331480946410E+08, 1.036615069048626E+08, -5.655557888916314E+06,
2460455.500000000, A.D. 2024-May-25 00:00:00.0000, -3.634800674208255E+08, 9.303988997898328E+07, -5.875101555059638E+06,
2460462.500000000, A.D. 2024-Jun-01 00:00:00.0000, -3.680930798106736E+08, 8.233273209960112E+07, -6.089246809123829E+06,
2460469.500000000, A.D. 2024-Jun-08 00:00:00.0000, -3.723732764995330E+08, 7.155106013244434E+07, -6.297885211331725E+06,
2460476.500000000, A.D. 2024-Jun-15 00:00:00.0000, -3.763220827241453E+08, 6.070563858801576E+07, -6.500917993503714E+06,
2460483.500000000, A.D. 2024-Jun-22 00:00:00.0000, -3.799412353285257E+08, 4.980696631931708E+07, -6.698255625369728E+06,
2460490.500000000, A.D. 2024-Jun-29 00:00:00.0000, -3.832327635189890E+08, 3.886527430786331E+07, -6.889817175753129E+06,
2460497.500000000, A.D. 2024-Jul-06 00:00:00.0000, -3.861989701738138E+08, 2.789052195207933E+07, -7.075529915594423E+06,
2460504.500000000, A.D. 2024-Jul-13 00:00:00.0000, -3.888424117923063E+08, 1.689239457241902E+07, -7.255329112337789E+06,
2460511.500000000, A.D. 2024-Jul-20 00:00:00.0000, -3.911658790909959E+08, 5.880303173014407E+06, -7.429157740986142E+06,
2460518.500000000, A.D. 2024-Jul-27 00:00:00.0000, -3.931723789211456E+08, -5.136614603933107E+06, -7.596966131944172E+06,
2460525.500000000, A.D. 2024-Aug-03 00:00:00.0000, -3.948651172458488E+08, -1.614949280141502E+07, -7.758711613030404E+06,
2460532.500000000, A.D. 2024-Aug-10 00:00:00.0000, -3.962474830114447E+08, -2.714973484132457E+07, -7.914358162255634E+06,
2460539.500000000, A.D. 2024-Aug-17 00:00:00.0000, -3.973230328571950E+08, -3.812901065079535E+07, -8.063876074483363E+06,
2460546.500000000, A.D. 2024-Aug-24 00:00:00.0000, -3.980954766209171E+08, -4.907925332420726E+07, -8.207241646793691E+06,
2460553.500000000, A.D. 2024-Aug-31 00:00:00.0000, -3.985686635085364E+08, -5.999265545974936E+07, -8.344436898860838E+06,
2460560.500000000, A.D. 2024-Sep-07 00:00:00.0000, -3.987465685457796E+08, -7.086166511616591E+07, -8.475449352554120E+06,
2460567.500000000, A.D. 2024-Sep-14 00:00:00.0000, -3.986332792095340E+08, -8.167898045844103E+07, -8.600271798272558E+06,
2460574.500000000, A.D. 2024-Sep-21 00:00:00.0000, -3.982329842475558E+08, -9.243754273757811E+07, -8.718901829092167E+06,
2460581.500000000, A.D. 2024-Sep-28 00:00:00.0000, -3.975499651519904E+08, -1.031305308846433E+08, -8.831341362484857E+06,
2460588.500000000, A.D. 2024-Oct-05 00:00:00.0000, -3.965885865931507E+08, -1.137513577639249E+08, -8.937596486344799E+06,
2460595.500000000, A.D. 2024-Oct-12 00:00:00.0000, -3.953532861452283E+08, -1.242936651459628E+08, -9.037677352332875E+06,
2460602.500000000, A.D. 2024-Oct-19 00:00:00.0000, -3.938485650228781E+08, -1.347513177099459E+08, -9.131597977637544E+06,
2460609.500000000, A.D. 2024-Oct-26 00:00:00.0000, -3.920789798308767E+08, -1.451183969137926E+08, -9.219376017604612E+06,
2460616.500000000, A.D. 2024-Nov-02 00:00:00.0000, -3.900491350415874E+08, -1.553891949131859E+08, -9.301032544966228E+06,
2460623.500000000, A.D. 2024-Nov-09 00:00:00.0000, -3.877636760759228E+08, -1.655582085371319E+08, -9.376591842633657E+06,
2460630.500000000, A.D. 2024-Nov-16 00:00:00.0000, -3.852272829337956E+08, -1.756201333444895E+08, -9.446081212057278E+06,
2460637.500000000, A.D. 2024-Nov-23 00:00:00.0000, -3.824446642992305E+08, -1.855698578332863E+08, -9.509530805151783E+06,
2460644.500000000, A.D. 2024-Nov-30 00:00:00.0000, -3.794205518846568E+08, -1.954024578647959E+08, -9.566973501980767E+06,
2460651.500000000, A.D. 2024-Dec-07 00:00:00.0000, -3.761596945684959E+08, -2.051131908984971E+08, -9.618444837859467E+06,
2460658.500000000, A.D. 2024-Dec-14 00:00:00.0000, -3.726668529886026E+08, -2.146974888282809E+08, -9.663982816206038E+06,
2460665.500000000, A.D. 2024-Dec-21 00:00:00.0000, -3.689467968847209E+08, -2.241509506735989E+08, -9.703627495459765E+06,
2460672.500000000, A.D. 2024-Dec-28 00:00:00.0000, -3.650043031946709E+08, -2.334693381051088E+08, -9.737420773191914E+06,
2460679.500000000, A.D. 2025-Jan-04 00:00:00.0000, -3.608441522863241E+08, -2.426485714382147E+08, -9.765406410964400E+06,
2460686.500000000, A.D. 2025-Jan-11 00:00:00.0000, -3.564711241251191E+08, -2.516847244409786E+08, -9.787629996480405E+06,
2460693.500000000, A.D. 2025-Jan-18 00:00:00.0000, -3.518899952719076E+08, -2.605740188804529E+08, -9.804138833287299E+06,
2460700.500000000, A.D. 2025-Jan-25 00:00:00.0000, -3.471055364468372E+08, -2.693128192874101E+08, -9.814981818636209E+06,
2460707.500000000, A.D. 2025-Feb-01 00:00:00.0000, -3.421225104511580E+08, -2.778976279745637E+08, -9.820209328920037E+06,
2460714.500000000, A.D. 2025-Feb-08 00:00:00.0000, -3.369456703715182E+08, -2.863250802921940E+08, -9.819873115962341E+06,
$$EOE